NORAD_CAT_ID,OBJECT_NAME,OBJECT_TYPE,EPOCH,MEAN_MOTION,ECCENTRICITY,INCLINATION,RA_OF_ASC_NODE,ARG_OF_PERICENTER,MEAN_ANOMALY,BSTAR,MEAN_MOTION_DOT,MEAN_MOTION_DDOT,TLE_LINE0,TLE_LINE1,TLE_LINE2,SEMIMAJOR_AXIS,PERIOD,APOGEE,PERIGEE,DECAYED
51801.0,STARLINK-3592,PAYLOAD,2022-06-19 22:00:00,15.088143,0.0001812,53.2143,328.8858,39.9692,31.4321,0.0033259,0.00053005,0.0,0 STARLINK-3592,1 51801U 22017AK  22170.91667824  .00053005  00000-0  33259-2 0  9999,2 51801  53.2143 328.8858 0001812  39.9692  31.4321 15.08814300  1305,6917.959,95.439,541.077,538.57,0.0
51801.0,STARLINK-3592,PAYLOAD,2022-06-20 06:00:00,15.08831646,0.0001668,53.2145,327.3875,45.435,37.5565,0.0012108,0.0001903,0.0,0 STARLINK-3592,1 51801U 22017AK  22171.25001157  .00019030  00000-0  12108-2 0  9998,2 51801  53.2145 327.3875 0001668  45.4350  37.5565 15.08831646 18848,6917.906,95.438,540.925,538.617,0.0
51801.0,STARLINK-3592,PAYLOAD,2022-06-20 12:00:00,15.08905347,0.0001712,53.2161,326.2638,44.425,317.2506,-0.012928,-0.0020072,0.0,0 STARLINK-3592,1 51801U 22017AK  22171.50001157 -.00200720  00000-0 -12928-1 0  9995,2 51801  53.2161 326.2638 0001712  44.4250 317.2506 15.08905347 18886,6917.681,95.433,540.73,538.361,0.0
51801.0,STARLINK-3592,PAYLOAD,2022-06-20 14:00:01,15.08822089,0.0001723,53.2165,325.8902,43.8325,50.7659,-0.0042711,-0.00067593,0.0,0 STARLINK-3592,1 51801U 22017AK  22171.58334491 -.00067593  00000-0 -42711-2 0  9996,2 51801  53.2165 325.8902 0001723  43.8325  50.7659 15.08822089  1305,6917.935,95.439,540.992,538.6080000000002,0.0
51801.0,STARLINK-3592,PAYLOAD,2022-06-20 20:00:01,15.08811863,0.0001984,53.2146,324.7707,44.6128,328.6795,0.0031572,0.00050279,0.0,0 STARLINK-3592,1 51801U 22017AK  22171.83334491  .00050279  00000-0  31572-2 0  9998,2 51801  53.2146 324.7707 0001984  44.6128 328.6795 15.08811863 18937,6917.965999999999,95.439,541.2040000000002,538.4590000000002,0.0
51801.0,STARLINK-3592,PAYLOAD,2022-06-20 22:00:00,15.08819211,0.0001976,53.2144,324.3964,42.8233,63.3623,0.0029709,0.00047285,0.0,0 STARLINK-3592,1 51801U 22017AK  22171.91667824  .00047285  00000-0  29709-2 0  9998,2 51801  53.2144 324.3964 0001976  42.8233  63.3623 15.08819211  1305,6917.944,95.439,541.1759999999998,538.442,0.0
51801.0,STARLINK-3592,PAYLOAD,2022-06-21 12:00:00,15.08861019,0.0001935,53.2149,321.7762,51.4201,345.055,-0.0027301,-0.00043501,0.0,0 STARLINK-3592,1 51801U 22017AK  22172.50001157 -.00043501  00000-0 -27301-2 0  9990,2 51801  53.2149 321.7762 0001935  51.4201 345.0550 15.08861019 19034,6917.816,95.436,541.02,538.3430000000002,0.0
51801.0,STARLINK-3592,PAYLOAD,2022-06-21 14:00:01,15.08846784,0.0001998,53.2148,321.4026,49.8488,79.5333,-0.0019075,-0.00030524,0.0,0 STARLINK-3592,1 51801U 22017AK  22172.58334491 -.00030524  00000-0 -19075-2 0  9998,2 51801  53.2148 321.4026 0001998  49.8488  79.5333 15.08846784  1301,6917.86,95.437,541.107,538.342,0.0
51801.0,STARLINK-3592,PAYLOAD,2022-06-21 22:00:00,15.08827953,0.0002101,53.2145,319.9069,45.5872,95.3825,0.0012548,0.00019732,0.0,0 STARLINK-3592,1 51801U 22017AK  22172.91667824  .00019732  00000-0  12548-2 0  9998,2 51801  53.2145 319.9069 0002101  45.5872  95.3825 15.08827953  1303,6917.917,95.438,541.236,538.3290000000002,0.0
51801.0,STARLINK-3592,PAYLOAD,2022-06-22 06:00:00,15.08805289,0.0001843,53.2147,318.4087,49.6281,102.9409,0.0017291,0.00027312,0.0,0 STARLINK-3592,1 51801U 22017AK  22173.25001157  .00027312  00000-0  17291-2 0  9990,2 51801  53.2147 318.4087 0001843  49.6281 102.9409 15.08805289 19142,6917.986,95.44,541.126,538.577,0.0
51801.0,STARLINK-3592,PAYLOAD,2022-06-22 14:00:01,15.08835176,0.0001954,53.2157,316.9129,48.5511,115.5739,-0.0010370999999999,-0.00016754,0.0,0 STARLINK-3592,1 51801U 22017AK  22173.58334491 -.00016754  00000-0 -10371-2 0  9998,2 51801  53.2157 316.9129 0001954  48.5511 115.5739 15.08835176  1303,6917.895,95.438,541.112,538.408,0.0
51801.0,STARLINK-3592,PAYLOAD,2022-06-22 22:00:00,15.08826428,0.0002019,53.2144,315.4174,44.4115,131.2961,0.0016774,0.00026499,0.0,0 STARLINK-3592,1 51801U 22017AK  22173.91667824  .00026499  00000-0  16774-2 0  9992,2 51801  53.2144 315.4174 0002019  44.4115 131.2961 15.08826428  1303,6917.922,95.438,541.184,538.39,0.0
51801.0,STARLINK-3592,PAYLOAD,2022-06-23 04:00:01,15.08830781,0.0001826,53.2147,314.2935,49.0415,45.4264,0.0013333,0.0002099,0.0,0 STARLINK-3592,1 51801U 22017AK  22174.16668981  .00020990  00000-0  13333-2 0  9993,2 51801  53.2147 314.2935 0001826  49.0415  45.4264 15.08830781 19282,6917.909000000002,95.438,541.0369999999998,538.51,0.0
51801.0,STARLINK-3592,PAYLOAD,2022-06-23 14:00:01,15.08866841,0.0001858,53.2147,312.4239,47.3188,151.5776,-0.0042635,-0.00067557,0.0,0 STARLINK-3592,1 51801U 22017AK  22174.58334491 -.00067557  00000-0 -42635-2 0  9994,2 51801  53.2147 312.4239 0001858  47.3188 151.5776 15.08866841  1309,6917.7980000000025,95.436,540.9490000000002,538.378,0.0
51801.0,STARLINK-3592,PAYLOAD,2022-06-23 22:00:00,15.08828104,0.0001888,53.2142,310.9278,42.5244,167.9733,0.00092078,0.00014392,0.0,0 STARLINK-3592,1 51801U 22017AK  22174.91667824  .00014392  00000-0  92078-3 0  9994,2 51801  53.2142 310.9278 0001888  42.5244 167.9733 15.08828104 19395,6917.917,95.438,541.0880000000002,538.476,0.0
51801.0,STARLINK-3592,PAYLOAD,2022-06-24 14:00:01,15.08850139,0.0001826,53.2156,307.9343,47.2904,186.3749,-0.0015363,-0.00024662,0.0,0 STARLINK-3592,1 51801U 22017AK  22175.58334491 -.00024662  00000-0 -15363-2 0  9993,2 51801  53.2156 307.9343 0001826  47.2904 186.3749 15.08850139  1303,6917.849,95.437,540.9780000000002,538.451,0.0
51801.0,STARLINK-3592,PAYLOAD,2022-06-24 22:00:01,15.08848816,0.0001867,53.2138,306.4382,44.3854,200.9381,-9.6422e-05,-1.823e-05,0.0,0 STARLINK-3592,1 51801U 22017AK  22175.91668981 -.00001823  00000-0 -96422-4 0  9995,2 51801  53.2138 306.4382 0001867  44.3854 200.9381 15.08848816 19546,6917.853,95.437,541.01,538.427,0.0
51801.0,STARLINK-3592,PAYLOAD,2022-06-25 14:00:01,15.08836938,0.000193,53.2139,303.4452,49.962,218.5111,-0.00085449,-0.00013861,0.0,0 STARLINK-3592,1 51801U 22017AK  22176.58334491 -.00013861  00000-0 -85449-3 0  9996,2 51801  53.2139 303.4452 0001930  49.9620 218.5111 15.08836938  1308,6917.89,95.438,541.09,538.42,0.0
51801.0,STARLINK-3592,PAYLOAD,2022-06-25 22:00:00,15.08848685,0.0001954,53.2136,301.9487,46.8097,233.2495,-0.00049856,-8.216e-05,0.0,0 STARLINK-3592,1 51801U 22017AK  22176.91667824 -.00008216  00000-0 -49856-3 0  9992,2 51801  53.2136 301.9487 0001954  46.8097 233.2495 15.08848685  1307,6917.854,95.437,541.071,538.367,0.0
51801.0,STARLINK-3592,PAYLOAD,2022-06-26 06:00:00,15.08829945,0.0001809,53.2137,300.4506,52.6563,239.0108,0.0025411,0.00040375,0.0,0 STARLINK-3592,1 51801U 22017AK  22177.25001157  .00040375  00000-0  25411-2 0  9991,2 51801  53.2137 300.4506 0001809  52.6563 239.0108 15.08829945 19746,6917.911,95.438,541.028,538.525,0.0
51801.0,STARLINK-3592,PAYLOAD,2022-06-26 12:00:00,15.08838735,0.0001816,53.214,299.3296,48.6654,161.6328,-0.0009599,-0.00015532,0.0,0 STARLINK-3592,1 51801U 22017AK  22177.50001157 -.00015532  00000-0 -95990-3 0  9998,2 51801  53.2140 299.3296 0001816  48.6654 161.6328 15.08838735 19781,6917.884,95.438,541.006,538.493,0.0
51801.0,STARLINK-3592,PAYLOAD,2022-06-26 14:00:01,15.08833328,0.0001886,53.2138,298.9558,46.6601,256.5994,-0.00040685,-6.756e-05,0.0,0 STARLINK-3592,1 51801U 22017AK  22177.58335648 -.00006756  00000-0 -40685-3 0  9990,2 51801  53.2138 298.9558 0001886  46.6601 256.5994 15.08833328  1306,6917.901,95.438,541.07,538.461,0.0
51801.0,STARLINK-3592,PAYLOAD,2022-06-26 22:00:00,15.08846293,0.0001894,53.2137,297.4593,43.8402,270.9312,-0.00092567,-0.00014993,0.0,0 STARLINK-3592,1 51801U 22017AK  22177.91667824 -.00014993  00000-0 -92567-3 0  9999,2 51801  53.2137 297.4593 0001894  43.8402 270.9312 15.08846293  1304,6917.861,95.437,541.036,538.4159999999998,0.0
51801.0,STARLINK-3592,PAYLOAD,2022-06-27 04:00:00,15.0881921,0.0001758,53.214,296.3356,47.9994,185.4778,0.0027953,0.00044455,0.0,0 STARLINK-3592,1 51801U 22017AK  22178.16667824  .00044455  00000-0  27953-2 0  9997,2 51801  53.2140 296.3356 0001758  47.9994 185.4778 15.08819210 19880,6917.944,95.439,541.025,538.5930000000002,0.0
51801.0,STARLINK-3592,PAYLOAD,2022-06-27 12:00:00,15.08863214,0.0001827,53.2142,294.8403,46.8986,198.1634,-0.0040976999999999,-0.00064958,0.0,0 STARLINK-3592,1 51801U 22017AK  22178.50001157 -.00064958  00000-0 -40977-2 0  9999,2 51801  53.2142 294.8403 0001827  46.8986 198.1634 15.08863214 19935,6917.809,95.436,540.938,538.411,0.0
51801.0,STARLINK-3592,PAYLOAD,2022-06-27 14:00:01,15.08843028,0.0001894,53.2141,294.4666,44.8354,293.1328,-0.0025007,-0.00039871,0.0,0 STARLINK-3592,1 51801U 22017AK  22178.58334491 -.00039871  00000-0 -25007-2 0  9990,2 51801  53.2141 294.4666 0001894  44.8354 293.1328 15.08843028  1301,6917.871,95.437,541.0459999999998,538.4259999999998,0.0
51801.0,STARLINK-3592,PAYLOAD,2022-06-27 20:00:01,15.08817263,0.0001892,53.2141,293.3445,40.9646,215.7576,0.0016192,0.0002556,0.0,0 STARLINK-3592,1 51801U 22017AK  22178.83335648  .00025560  00000-0  16192-2 0  9996,2 51801  53.2141 293.3445 0001892  40.9646 215.7576 15.08817263 19983,6917.95,95.439,541.124,538.506,0.0
51801.0,STARLINK-3592,PAYLOAD,2022-06-27 22:00:00,15.08841184,0.0001864,53.2141,292.9699,41.3327,308.2144,-0.0013353,-0.00021478,0.0,0 STARLINK-3592,1 51801U 22017AK  22178.91667824 -.00021478  00000-0 -13353-2 0  9991,2 51801  53.2141 292.9699 0001864  41.3327 308.2144 15.08841184  1304,6917.877,95.437,541.031,538.452,0.0
51801.0,STARLINK-3592,PAYLOAD,2022-06-28 14:00:01,15.08839667,0.0001941,53.2146,289.9775,44.1711,328.5440000000001,-0.00078497,-0.00012759,0.0,0 STARLINK-3592,1 51801U 22017AK  22179.58334491 -.00012759  00000-0 -78497-3 0  9999,2 51801  53.2146 289.9775 0001941  44.1711 328.5440 15.08839667 20100,6917.880999999999,95.438,541.089,538.404,0.0
